OBJECT_NAME,OBJECT_ID,EPOCH,MEAN_MOTION,ECCENTRICITY,INCLINATION,RA_OF_ASC_NODE,ARG_OF_PERICENTER,MEAN_ANOMALY,EPHEMERIS_TYPE,CLASSIFICATION_TYPE,NORAD_CAT_ID,ELEMENT_SET_NO,REV_AT_EPOCH,BSTAR,MEAN_MOTION_DOT,MEAN_MOTION_DDOT
GSAT-15,2015-065A,2026-06-14T01:34:27.948000,1.00270859,.00040558,0.0783,265.8341,160.9053,312.7376,0,U,41028,999,3876,0,-.248E-5,0
BADR-7 (ARABSAT-6B),2015-065B,2026-06-14T04:40:32.448000,1.00272651,.00036594,0.0282,229.3153,331.1510,158.1593,0,U,41029,999,3873,0,.153E-5,0
LAOSAT 1,2015-067A,2026-06-14T00:01:50.049408,1.00270918,.000219,0.0231,162.8359,231.3661,357.0849,0,U,41034,999,3882,0,-.333E-5,0
TELSTAR 12V,2015-068A,2026-06-14T04:28:48.573120,1.00271063,.00020997,0.0023,347.5157,87.6862,239.5001,0,U,41036,999,3859,0,-.11E-5,0
ELEKTRO-L 2,2015-074A,2026-06-14T01:03:32.621184,1.00270718,.00007046,6.6845,70.5612,243.9352,309.2359,0,U,41105,999,3847,0,-.114E-5,0
COSMOS 2513,2015-075A,2026-06-13T10:06:46.767168,1.00271348,.0003255,0.0796,100.5492,331.7026,61.4361,0,U,41121,999,3851,0,-.126E-5,0
EXPRESS-AMU1,2015-082A,2026-06-14T04:43:24.672576,1.00272388,.00026274,0.0154,48.6945,35.7777,284.9711,0,U,41191,999,3823,0,.164E-5,0
GAOFEN-4,2015-083A,2026-06-14T02:37:38.601120,1.00270299,.00043663,0.3481,83.8704,114.2838,209.3813,0,U,41194,999,3849,0,-.326E-5,0
BELINTERSAT-1,2016-001A,2026-06-14T04:47:46.754880,1.00268567,.00023835,0.0451,255.2322,151.1882,339.4938,0,U,41238,999,3820,0,.116E-5,0
IRNSS-1E,2016-003A,2026-06-12T15:26:18.985920,1.00267194,.00179637,33.2248,59.8162,179.0965,5.2620,0,U,41241,999,3803,0,-.313E-5,0
EUTELSAT 9B,2016-005A,2026-06-14T04:35:40.415136,1.00270407,.0001689,0.0734,74.6324,328.0748,297.6789,0,U,41310,999,3808,0,.7E-6,0
SES-9,2016-013A,2026-06-13T20:54:18.563616,1.00269376,.00019963,0.0107,338.3404,107.7175,237.9960,0,U,41380,999,3740,0,-.335E-5,0
EUTELSAT 65 WEST A,2016-014A,2026-06-14T04:41:38.580288,1.00269916,.00020029,0.0557,22.8929,50.3399,194.4866,0,U,41382,999,3749,0,-.268E-5,0
IRNSS-1F,2016-015A,2026-06-14T01:17:07.111392,1.00265805,.0017463,5.3413,96.8509,185.3965,31.9094,0,U,41384,999,3763,0,.163E-5,0
BEIDOU-2 IGSO-6,2016-021A,2026-06-13T00:17:42.034848,1.00259939,.00570771,60.2196,38.0819,231.5209,89.2880,0,U,41434,999,3743,0,-.156E-5,0
IRNSS-1G,2016-027A,2026-06-13T18:54:04.737312,1.00267757,.00075386,5.1897,97.5513,354.2813,223.3232,0,U,41469,999,3714,0,-.328E-5,0
JCSAT-2B,2016-028A,2026-06-14T03:34:25.050720,1.00268395,.000076,0.0167,335.4735,100.8782,33.7080,0,U,41471,999,3710,0,-.157E-5,0
THAICOM 8,2016-031A,2026-06-14T01:30:13.354848,1.00269570,.00034284,0.0784,52.8584,6.0730,304.5030,0,U,41552,999,3668,0,-.112E-5,0
INTELSAT 31 (IS-31),2016-035A,2026-06-14T04:05:58.475616,1.00268287,.00012059,0.0179,271.7333,326.1691,351.0186,0,U,41581,999,3665,0,-.142E-5,0
BEIDOU-2 G7,2016-037A,2026-06-13T23:56:35.551680,1.00265328,.00068027,1.7107,69.2921,3.9979,298.6131,0,U,41586,999,685,0,-.344E-5,0
ABS-2A (MONGOLSAT-1),2016-038A,2026-06-13T20:13:00.310944,1.00268031,.00012562,0.0256,342.2724,34.6383,263.2316,0,U,41588,999,3667,0,0,0
EUTELSAT 117 WEST B,2016-038B,2026-06-14T03:59:44.075040,1.00266033,.00005006,0.0085,149.2353,307.8530,108.3184,0,U,41589,999,3663,0,-.2E-7,0
BRISAT,2016-039A,2026-06-13T17:17:23.868096,1.00270724,.00018804,0.0169,316.5658,122.5208,232.7935,0,U,41591,999,3657,0,-.186E-5,0
ECHOSTAR 18,2016-039B,2026-06-13T21:25:01.237152,1.00269516,.0001198,0.0175,352.8251,92.1954,77.0736,0,U,41592,999,3659,0,-.272E-5,0
MUOS-5,2016-041A,2026-06-14T04:03:21.227616,1.00271507,.0197333,2.2102,301.5997,260.8660,15.6110,0,U,41622,999,3705,0,-.113E-5,0
TIANTONG-1 1,2016-048A,2026-06-14T03:31:38.688384,1.00267836,.00058154,3.8434,43.3916,45.6971,327.6570,0,U,41725,999,3624,0,-.311E-5,0
JCSAT-16,2016-050A,2026-06-13T18:58:11.842176,1.00270535,.00007575,0.0169,334.0924,126.3750,230.1260,0,U,41729,999,3603,0,-.241E-5,0
USA 270,2016-052A,2026-06-11T08:15:58.536000,1.00285262,.0008524,4.1835,77.2658,338.7721,152.1702,0,U,41744,999,2807,0,.96E-6,0
USA 271,2016-052B,2026-06-11T06:58:56.063424,1.00260351,.0010788,4.1546,77.3359,156.7037,252.9173,0,U,41745,999,2786,0,-.344E-5,0
INTELSAT 36 (IS-36),2016-053A,2026-06-14T04:56:57.688800,1.00270032,.00021247,0.0105,359.4994,329.3715,76.3746,0,U,41747,999,3592,0,-.15E-6,0
INSAT-3DR,2016-054A,2026-06-14T04:02:21.687648,1.00270810,.00106359,0.0985,86.7947,187.1091,123.1361,0,U,41752,999,3578,0,-.68E-6,0
GSAT-18,2016-060A,2026-06-14T04:02:21.687648,1.00270742,.00054369,0.0544,103.2442,328.9828,324.8180,0,U,41793,999,3549,0,-.68E-6,0
